COSMOS 1933             
1 18958U 88020A   25351.43576530  .00004065  00000+0  20337-3 0  9990
2 18958  82.5127 332.2383 0006173 114.6359 245.5518 15.17145790 37750
SL-3 R/B                
1 19046U 88032B   25351.53935684  .00003957  00000+0  19181-3 0  9996
2 19046  97.5076 330.2267 0027246 156.4582 203.7906 15.18790207 39639
SL-16 R/B               
1 19120U 88039B   25351.39759189  .00000072  00000+0  56910-4 0  9991
2 19120  71.0139 242.5500 0019628 108.2871 252.0392 14.19597230946707
COSMOS 1953             
1 19210U 88050A   25351.68474580  .00004758  00000+0  17794-3 0  9996
2 19210  82.5093 240.6194 0013544  56.2144 304.0382 15.26994907 25264
SL-8 R/B                
1 19257U 88053B   25351.49827101  .00000212  00000+0  77080-4 0  9996
2 19257  74.0476 263.9498 0018984 106.2197  66.8737 14.38862125964771
COSMOS 1975             
1 19573U 88093A   25351.63166155  .00005639  00000+0  21408-3 0  9992
2 19573  82.5194 199.9313 0013020  97.2857 262.9862 15.26542822  6889
SL-14 R/B               
1 19574U 88093B   25351.42235847  .00000459  00000+0  50210-4 0  9994
2 19574  82.5308 119.2729 0019605 313.2292 105.8953 14.85554254988827
SL-16 R/B               
1 19650U 88102B   25351.33231797  .00000239  00000+0  14498-3 0  9993
2 19650  71.0000 324.7795 0012802 143.9698 216.2291 14.16137860915231
INTERCOSMOS 24          
1 20261U 89080A   25351.59051238  .00000672  00000+0  18910-3 0  9991
2 20261  82.6048 157.7989 1188911 123.2722 248.8024 12.59448621656462
SL-14 R/B               
1 20262U 89080C   25351.62464817  .00000342  00000+0  98021-4 0  9993
2 20262  82.5924 225.8852 1230588  12.4272 350.4436 12.50417670649895
DELTA 1 R/B             
1 20323U 89089B   25351.60627241  .00000276  00000+0  76949-4 0  9991
2 20323  97.0748 207.0724 0069760  23.1089 337.3220 14.50576033883834
ARIANE 40 R/B           
1 20443U 90005H   25351.60383304  .00000258  00000+0  95726-4 0  9997
2 20443  98.3239  49.6443 0011284  92.6032 267.6449 14.39802356880990
