CCSDS_OMM_VERS = 2.0
CREATION_DATE  = 
ORIGINATOR     = 

OBJECT_NAME    = COSMOS 1933
OBJECT_ID      = 1988-020A
CENTER_NAME    = EARTH
REF_FRAME      = TEME
TIME_SYSTEM    = UTC
MEAN_ELEMENT_THEORY = SGP/SGP4

EPOCH          = 2025-12-17T10:27:30.121920
MEAN_MOTION    = 15.17145790
ECCENTRICITY   = .00061739
INCLINATION    = 82.5127
RA_OF_ASC_NODE = 332.2383
ARG_OF_PERICENTER = 114.6359
MEAN_ANOMALY   = 245.5518

EPHEMERIS_TYPE = 0
CLASSIFICATION_TYPE = U
NORAD_CAT_ID   = 18958
ELEMENT_SET_NO = 999
REV_AT_EPOCH   = 3775
BSTAR          = .20337147E-3
MEAN_MOTION_DOT = .4065E-4
MEAN_MOTION_DDOT = 0

CCSDS_OMM_VERS = 2.0
CREATION_DATE  = 
ORIGINATOR     = 

OBJECT_NAME    = SL-3 R/B
OBJECT_ID      = 1988-032B
CENTER_NAME    = EARTH
REF_FRAME      = TEME
TIME_SYSTEM    = UTC
MEAN_ELEMENT_THEORY = SGP/SGP4

EPOCH          = 2025-12-17T12:56:40.430976
MEAN_MOTION    = 15.18790207
ECCENTRICITY   = .00272469
INCLINATION    = 97.5076
RA_OF_ASC_NODE = 330.2267
ARG_OF_PERICENTER = 156.4582
MEAN_ANOMALY   = 203.7906

EPHEMERIS_TYPE = 0
CLASSIFICATION_TYPE = U
NORAD_CAT_ID   = 19046
ELEMENT_SET_NO = 999
REV_AT_EPOCH   = 3963
BSTAR          = .19180889E-3
MEAN_MOTION_DOT = .3957E-4
MEAN_MOTION_DDOT = 0

CCSDS_OMM_VERS = 2.0
CREATION_DATE  = 
ORIGINATOR     = 

OBJECT_NAME    = SL-16 R/B
OBJECT_ID      = 1988-039B
CENTER_NAME    = EARTH
REF_FRAME      = TEME
TIME_SYSTEM    = UTC
MEAN_ELEMENT_THEORY = SGP/SGP4

EPOCH          = 2025-12-17T09:32:31.939296
MEAN_MOTION    = 14.19597230
ECCENTRICITY   = .00196286
INCLINATION    = 71.0139
RA_OF_ASC_NODE = 242.5500
ARG_OF_PERICENTER = 108.2871
MEAN_ANOMALY   = 252.0392

EPHEMERIS_TYPE = 0
CLASSIFICATION_TYPE = U
NORAD_CAT_ID   = 19120
ELEMENT_SET_NO = 999
REV_AT_EPOCH   = 94670
BSTAR          = .56909725E-4
MEAN_MOTION_DOT = .72E-6
MEAN_MOTION_DDOT = 0

CCSDS_OMM_VERS = 2.0
CREATION_DATE  = 
ORIGINATOR     = 

OBJECT_NAME    = COSMOS 1953
OBJECT_ID      = 1988-050A
CENTER_NAME    = EARTH
REF_FRAME      = TEME
TIME_SYSTEM    = UTC
MEAN_ELEMENT_THEORY = SGP/SGP4

EPOCH          = 2025-12-17T16:26:02.037120
MEAN_MOTION    = 15.26994907
ECCENTRICITY   = .00135445
INCLINATION    = 82.5093
RA_OF_ASC_NODE = 240.6194
ARG_OF_PERICENTER = 56.2144
MEAN_ANOMALY   = 304.0382

EPHEMERIS_TYPE = 0
CLASSIFICATION_TYPE = U
NORAD_CAT_ID   = 19210
ELEMENT_SET_NO = 999
REV_AT_EPOCH   = 2526
BSTAR          = .17794019E-3
MEAN_MOTION_DOT = .4758E-4
MEAN_MOTION_DDOT = 0

CCSDS_OMM_VERS = 2.0
CREATION_DATE  = 
ORIGINATOR     = 

OBJECT_NAME    = SL-8 R/B
OBJECT_ID      = 1988-053B
CENTER_NAME    = EARTH
REF_FRAME      = TEME
TIME_SYSTEM    = UTC
MEAN_ELEMENT_THEORY = SGP/SGP4

EPOCH          = 2025-12-17T11:57:30.615264
MEAN_MOTION    = 14.38862125
ECCENTRICITY   = .00189841
INCLINATION    = 74.0476
RA_OF_ASC_NODE = 263.9498
ARG_OF_PERICENTER = 106.2197
MEAN_ANOMALY   = 66.8737

EPHEMERIS_TYPE = 0
CLASSIFICATION_TYPE = U
NORAD_CAT_ID   = 19257
ELEMENT_SET_NO = 999
REV_AT_EPOCH   = 96477
BSTAR          = .77080102E-4
MEAN_MOTION_DOT = .212E-5
MEAN_MOTION_DDOT = 0

CCSDS_OMM_VERS = 2.0
CREATION_DATE  = 
ORIGINATOR     = 

OBJECT_NAME    = COSMOS 1975
OBJECT_ID      = 1988-093A
CENTER_NAME    = EARTH
REF_FRAME      = TEME
TIME_SYSTEM    = UTC
MEAN_ELEMENT_THEORY = SGP/SGP4

EPOCH          = 2025-12-17T15:09:35.557920
MEAN_MOTION    = 15.26542822
ECCENTRICITY   = .00130201
INCLINATION    = 82.5194
RA_OF_ASC_NODE = 199.9313
ARG_OF_PERICENTER = 97.2857
MEAN_ANOMALY   = 262.9862

EPHEMERIS_TYPE = 0
CLASSIFICATION_TYPE = U
NORAD_CAT_ID   = 19573
ELEMENT_SET_NO = 999
REV_AT_EPOCH   = 688
BSTAR          = .21407566E-3
MEAN_MOTION_DOT = .5639E-4
MEAN_MOTION_DDOT = 0

CCSDS_OMM_VERS = 2.0
CREATION_DATE  = 
ORIGINATOR     = 

OBJECT_NAME    = SL-14 R/B
OBJECT_ID      = 1988-093B
CENTER_NAME    = EARTH
REF_FRAME      = TEME
TIME_SYSTEM    = UTC
MEAN_ELEMENT_THEORY = SGP/SGP4

EPOCH          = 2025-12-17T10:08:11.771808
MEAN_MOTION    = 14.85554254
ECCENTRICITY   = .00196055
INCLINATION    = 82.5308
RA_OF_ASC_NODE = 119.2729
ARG_OF_PERICENTER = 313.2292
MEAN_ANOMALY   = 105.8953

EPHEMERIS_TYPE = 0
CLASSIFICATION_TYPE = U
NORAD_CAT_ID   = 19574
ELEMENT_SET_NO = 999
REV_AT_EPOCH   = 98882
BSTAR          = .50210336E-4
MEAN_MOTION_DOT = .459E-5
MEAN_MOTION_DDOT = 0

CCSDS_OMM_VERS = 2.0
CREATION_DATE  = 
ORIGINATOR     = 

OBJECT_NAME    = SL-16 R/B
OBJECT_ID      = 1988-102B
CENTER_NAME    = EARTH
REF_FRAME      = TEME
TIME_SYSTEM    = UTC
MEAN_ELEMENT_THEORY = SGP/SGP4

EPOCH          = 2025-12-17T07:58:32.272608
MEAN_MOTION    = 14.16137860
ECCENTRICITY   = .00128027
INCLINATION    = 71.0000
RA_OF_ASC_NODE = 324.7795
ARG_OF_PERICENTER = 143.9698
MEAN_ANOMALY   = 216.2291

EPHEMERIS_TYPE = 0
CLASSIFICATION_TYPE = U
NORAD_CAT_ID   = 19650
ELEMENT_SET_NO = 999
REV_AT_EPOCH   = 91523
BSTAR          = .14498114E-3
MEAN_MOTION_DOT = .239E-5
MEAN_MOTION_DDOT = 0

CCSDS_OMM_VERS = 2.0
CREATION_DATE  = 
ORIGINATOR     = 

OBJECT_NAME    = INTERCOSMOS 24
OBJECT_ID      = 1989-080A
CENTER_NAME    = EARTH
REF_FRAME      = TEME
TIME_SYSTEM    = UTC
MEAN_ELEMENT_THEORY = SGP/SGP4

EPOCH          = 2025-12-17T14:10:20.269632
MEAN_MOTION    = 12.59448621
ECCENTRICITY   = .11889118
INCLINATION    = 82.6048
RA_OF_ASC_NODE = 157.7989
ARG_OF_PERICENTER = 123.2722
MEAN_ANOMALY   = 248.8024

EPHEMERIS_TYPE = 0
CLASSIFICATION_TYPE = U
NORAD_CAT_ID   = 20261
ELEMENT_SET_NO = 999
REV_AT_EPOCH   = 65646
BSTAR          = .18910208E-3
MEAN_MOTION_DOT = .672E-5
MEAN_MOTION_DDOT = 0

CCSDS_OMM_VERS = 2.0
CREATION_DATE  = 
ORIGINATOR     = 

OBJECT_NAME    = SL-14 R/B
OBJECT_ID      = 1989-080C
CENTER_NAME    = EARTH
REF_FRAME      = TEME
TIME_SYSTEM    = UTC
MEAN_ELEMENT_THEORY = SGP/SGP4

EPOCH          = 2025-12-17T14:59:29.601888
MEAN_MOTION    = 12.50417670
ECCENTRICITY   = .12305886
INCLINATION    = 82.5924
RA_OF_ASC_NODE = 225.8852
ARG_OF_PERICENTER = 12.4272
MEAN_ANOMALY   = 350.4436

EPHEMERIS_TYPE = 0
CLASSIFICATION_TYPE = U
NORAD_CAT_ID   = 20262
ELEMENT_SET_NO = 999
REV_AT_EPOCH   = 64989
BSTAR          = .98020772E-4
MEAN_MOTION_DOT = .342E-5
MEAN_MOTION_DDOT = 0

CCSDS_OMM_VERS = 2.0
CREATION_DATE  = 
ORIGINATOR     = 

OBJECT_NAME    = DELTA 1 R/B
OBJECT_ID      = 1989-089B
CENTER_NAME    = EARTH
REF_FRAME      = TEME
TIME_SYSTEM    = UTC
MEAN_ELEMENT_THEORY = SGP/SGP4

EPOCH          = 2025-12-17T14:33:01.936224
MEAN_MOTION    = 14.50576033
ECCENTRICITY   = .00697608
INCLINATION    = 97.0748
RA_OF_ASC_NODE = 207.0724
ARG_OF_PERICENTER = 23.1089
MEAN_ANOMALY   = 337.3220

EPHEMERIS_TYPE = 0
CLASSIFICATION_TYPE = U
NORAD_CAT_ID   = 20323
ELEMENT_SET_NO = 999
REV_AT_EPOCH   = 88383
BSTAR          = .76949381E-4
MEAN_MOTION_DOT = .276E-5
MEAN_MOTION_DDOT = 0

CCSDS_OMM_VERS = 2.0
CREATION_DATE  = 
ORIGINATOR     = 

OBJECT_NAME    = ARIANE 40 R/B
OBJECT_ID      = 1990-005H
CENTER_NAME    = EARTH
REF_FRAME      = TEME
TIME_SYSTEM    = UTC
MEAN_ELEMENT_THEORY = SGP/SGP4

EPOCH          = 2025-12-17T14:29:31.174656
MEAN_MOTION    = 14.39802356
ECCENTRICITY   = .00112848
INCLINATION    = 98.3239
RA_OF_ASC_NODE = 49.6443
ARG_OF_PERICENTER = 92.6032
MEAN_ANOMALY   = 267.6449

EPHEMERIS_TYPE = 0
CLASSIFICATION_TYPE = U
NORAD_CAT_ID   = 20443
ELEMENT_SET_NO = 999
REV_AT_EPOCH   = 88099
BSTAR          = .95725799E-4
MEAN_MOTION_DOT = .258E-5
MEAN_MOTION_DDOT = 0

